[{"OBJECT_NAME":"TIANQI-6","OBJECT_ID":"2020-076D","EPOCH":"2026-03-09T22:50:24.728640","MEAN_MOTION":15.06417552,"ECCENTRICITY":0.00106023,"INCLINATION":34.9994,"RA_OF_ASC_NODE":297.1791,"ARG_OF_PERICENTER":9.4595,"MEAN_ANOMALY":350.6312,"EPHEMERIS_TYPE":0,"CLASSIFICATION_TYPE":"U","NORAD_CAT_ID":46810,"ELEMENT_SET_NO":999,"REV_AT_EPOCH":29360,"BSTAR":0.00037023286,"MEAN_MOTION_DOT":5.552e-5,"MEAN_MOTION_DDOT":0},{"OBJECT_NAME":"STARLINK-35174","OBJECT_ID":"2025-207Z","EPOCH":"2026-03-09T17:24:39.222144","MEAN_MOTION":15.05689223,"ECCENTRICITY":7.935e-5,"INCLINATION":97.6027,"RA_OF_ASC_NODE":138.6483,"ARG_OF_PERICENTER":94.3438,"MEAN_ANOMALY":265.7879,"EPHEMERIS_TYPE":0,"CLASSIFICATION_TYPE":"U","NORAD_CAT_ID":65615,"ELEMENT_SET_NO":999,"REV_AT_EPOCH":2826,"BSTAR":0.00078086842,"MEAN_MOTION_DOT":0.00011236,"MEAN_MOTION_DDOT":0}]
